IRIDIUM 7 [-]           
1 24793U 97020B   23223.37933534  .00000315  00000+0  10391-3 0  9997
2 24793  86.3938  99.9711 0002122  91.1887 268.9552 14.34861919375177
IRIDIUM 5 [-]           
1 24795U 97020D   23223.49997510  .00002940  00000+0  29827-3 0  9996
2 24795  86.3944  32.2763 0130703  24.0167 336.7076 14.84230177384969
IRIDIUM 4 [-]           
1 24796U 97020E   23222.67766337  .00000392  00000+0  12875-3 0  9991
2 24796  86.3930  97.5906 0002007  85.9862 274.1564 14.35763435375399
IRIDIUM 914 [-]         
1 24836U 97030A   23223.39678653  .00000407  00000+0  12412-3 0  9994
2 24836  86.3923 107.8640 0000826  27.3461 332.7781 14.39555759371961
IRIDIUM 16 [-]          
1 24841U 97030F   23222.70799447  .00000475  00000+0  15221-3 0  9995
2 24841  86.4060 129.3225 0004102 104.8953 255.2699 14.37454072370045
IRIDIUM 911 [-]         
1 24842U 97030G   23222.74899809  .00000552  00000+0  14948-3 0  9994
2 24842  86.4485 128.6864 0013938 181.8495 178.2658 14.45952619377260
IRIDIUM 17 [-]          
1 24870U 97034B   23222.75947887  .00000521  00000+0  17076-3 0  9991
2 24870  86.4018 158.9430 0003975  78.7828 281.3816 14.36552422366439
IRIDIUM 920 [-]         
1 24871U 97034C   23223.01613677  .00000503  00000+0  15256-3 0  9997
2 24871  86.4016 139.6731 0012757 141.6046 218.6064 14.40267976369475
